[{"CCSDS_OMM_VERS":"3.0","COMMENT":"GENERATED VIA SPACE-TRACK.ORG API","CREATION_DATE":"2026-06-08T17:06:40","ORIGINATOR":"18 SPCS","OBJECT_NAME":"COSMOS 2584(GLONASS)","OBJECT_ID":"2025-042A","CENTER_NAME":"EARTH","REF_FRAME":"TEME","TIME_SYSTEM":"UTC","MEAN_ELEMENT_THEORY":"SGP4","EPOCH":"2026-06-08T05:23:06.412128","MEAN_MOTION":"2.13103875","ECCENTRICITY":"0.00058280","INCLINATION":"65.0792","RA_OF_ASC_NODE":"73.1067","ARG_OF_PERICENTER":"228.4476","MEAN_ANOMALY":"131.5246","EPHEMERIS_TYPE":"0","CLASSIFICATION_TYPE":"U","NORAD_CAT_ID":"63130","ELEMENT_SET_NO":"999","REV_AT_EPOCH":"985","BSTAR":"0.00000000000000","MEAN_MOTION_DOT":"-0.00000015","MEAN_MOTION_DDOT":"0.0000000000000","SEMIMAJOR_AXIS":"25507.875","PERIOD":"675.727","APOAPSIS":"19144.606","PERIAPSIS":"19114.874","OBJECT_TYPE":"PAYLOAD","RCS_SIZE":"LARGE","COUNTRY_CODE":"CIS","LAUNCH_DATE":"2025-03-02","SITE":"PKMTR","DECAY_DATE":null,"FILE":"5237682","GP_ID":"328104007","TLE_LINE0":"0 COSMOS 2584(GLONASS)","TLE_LINE1":"1 63130U 25042A   26159.22437977 -.00000015  00000-0  00000+0 0  9996","TLE_LINE2":"2 63130  65.0792  73.1067 0005828 228.4476 131.5246  2.13103875  9858"},{"CCSDS_OMM_VERS":"3.0","COMMENT":"GENERATED VIA SPACE-TRACK.ORG API","CREATION_DATE":"2026-06-09T02:58:40","ORIGINATOR":"18 SPCS","OBJECT_NAME":"COSMOS 2584(GLONASS)","OBJECT_ID":"2025-042A","CENTER_NAME":"EARTH","REF_FRAME":"TEME","TIME_SYSTEM":"UTC","MEAN_ELEMENT_THEORY":"SGP4","EPOCH":"2026-06-08T05:23:06.412992","MEAN_MOTION":"2.13103875","ECCENTRICITY":"0.00058283","INCLINATION":"65.0792","RA_OF_ASC_NODE":"73.1067","ARG_OF_PERICENTER":"228.4476","MEAN_ANOMALY":"131.5246","EPHEMERIS_TYPE":"0","CLASSIFICATION_TYPE":"U","NORAD_CAT_ID":"63130","ELEMENT_SET_NO":"999","REV_AT_EPOCH":"985","BSTAR":"0.00000000000000","MEAN_MOTION_DOT":"-0.00000015","MEAN_MOTION_DDOT":"0.0000000000000","SEMIMAJOR_AXIS":"25507.875","PERIOD":"675.727","APOAPSIS":"19144.607","PERIAPSIS":"19114.873","OBJECT_TYPE":"PAYLOAD","RCS_SIZE":"LARGE","COUNTRY_CODE":"CIS","LAUNCH_DATE":"2025-03-02","SITE":"PKMTR","DECAY_DATE":null,"FILE":"5238447","GP_ID":"328203467","TLE_LINE0":"0 COSMOS 2584(GLONASS)","TLE_LINE1":"1 63130U 25042A   26159.22437978 -.00000015  00000-0  00000-0 0  9998","TLE_LINE2":"2 63130  65.0792  73.1067 0005828 228.4476 131.5246  2.13103875  9858"},{"CCSDS_OMM_VERS":"3.0","COMMENT":"GENERATED VIA SPACE-TRACK.ORG API","CREATION_DATE":"2026-06-16T17:35:04","ORIGINATOR":"18 SPCS","OBJECT_NAME":"COSMOS 2584(GLONASS)","OBJECT_ID":"2025-042A","CENTER_NAME":"EARTH","REF_FRAME":"TEME","TIME_SYSTEM":"UTC","MEAN_ELEMENT_THEORY":"SGP4","EPOCH":"2026-06-16T04:50:31.942176","MEAN_MOTION":"2.13103849","ECCENTRICITY":"0.00057452","INCLINATION":"65.0842","RA_OF_ASC_NODE":"72.8354","ARG_OF_PERICENTER":"226.1824","MEAN_ANOMALY":"133.8028","EPHEMERIS_TYPE":"0","CLASSIFICATION_TYPE":"U","NORAD_CAT_ID":"63130","ELEMENT_SET_NO":"999","REV_AT_EPOCH":"1002","BSTAR":"0.00000000000000","MEAN_MOTION_DOT":"-0.00000022","MEAN_MOTION_DDOT":"0.0000000000000","SEMIMAJOR_AXIS":"25507.877","PERIOD":"675.727","APOAPSIS":"19144.397","PERIAPSIS":"19115.087","OBJECT_TYPE":"PAYLOAD","RCS_SIZE":"LARGE","COUNTRY_CODE":"CIS","LAUNCH_DATE":"2025-03-02","SITE":"PKMTR","DECAY_DATE":null,"FILE":"5250820","GP_ID":"330014812","TLE_LINE0":"0 COSMOS 2584(GLONASS)","TLE_LINE1":"1 63130U 25042A   26167.20175859 -.00000022  00000-0  00000-0 0  9990","TLE_LINE2":"2 63130  65.0842  72.8354 0005745 226.1824 133.8028  2.13103849 10024"},{"CCSDS_OMM_VERS":"3.0","COMMENT":"GENERATED VIA SPACE-TRACK.ORG API","CREATION_DATE":"2026-06-16T16:26:45","ORIGINATOR":"18 SPCS","OBJECT_NAME":"COSMOS 2584(GLONASS)","OBJECT_ID":"2025-042A","CENTER_NAME":"EARTH","REF_FRAME":"TEME","TIME_SYSTEM":"UTC","MEAN_ELEMENT_THEORY":"SGP4","EPOCH":"2026-06-16T04:50:31.942176","MEAN_MOTION":"2.13103849","ECCENTRICITY":"0.00057450","INCLINATION":"65.0842","RA_OF_ASC_NODE":"72.8354","ARG_OF_PERICENTER":"226.1824","MEAN_ANOMALY":"133.8028","EPHEMERIS_TYPE":"0","CLASSIFICATION_TYPE":"U","NORAD_CAT_ID":"63130","ELEMENT_SET_NO":"999","REV_AT_EPOCH":"1002","BSTAR":"0.00000000000000","MEAN_MOTION_DOT":"-0.00000022","MEAN_MOTION_DDOT":"0.0000000000000","SEMIMAJOR_AXIS":"25507.877","PERIOD":"675.727","APOAPSIS":"19144.396","PERIAPSIS":"19115.088","OBJECT_TYPE":"PAYLOAD","RCS_SIZE":"LARGE","COUNTRY_CODE":"CIS","LAUNCH_DATE":"2025-03-02","SITE":"PKMTR","DECAY_DATE":null,"FILE":"5250697","GP_ID":"329975621","TLE_LINE0":"0 COSMOS 2584(GLONASS)","TLE_LINE1":"1 63130U 25042A   26167.20175859 -.00000022  00000-0  00000+0 0  9999","TLE_LINE2":"2 63130  65.0842  72.8354 0005745 226.1824 133.8028  2.13103849 10024"},{"CCSDS_OMM_VERS":"3.0","COMMENT":"GENERATED VIA SPACE-TRACK.ORG API","CREATION_DATE":"2026-06-20T10:42:50","ORIGINATOR":"18 SPCS","OBJECT_NAME":"COSMOS 2584(GLONASS)","OBJECT_ID":"2025-042A","CENTER_NAME":"EARTH","REF_FRAME":"TEME","TIME_SYSTEM":"UTC","MEAN_ELEMENT_THEORY":"SGP4","EPOCH":"2026-06-19T22:56:24.809280","MEAN_MOTION":"2.13103910","ECCENTRICITY":"0.00051351","INCLINATION":"65.0856","RA_OF_ASC_NODE":"72.7078","ARG_OF_PERICENTER":"219.8892","MEAN_ANOMALY":"140.1108","EPHEMERIS_TYPE":"0","CLASSIFICATION_TYPE":"U","NORAD_CAT_ID":"63130","ELEMENT_SET_NO":"999","REV_AT_EPOCH":"1010","BSTAR":"0.00000000000000","MEAN_MOTION_DOT":"-0.00000037","MEAN_MOTION_DDOT":"0.0000000000000","SEMIMAJOR_AXIS":"25507.872","PERIOD":"675.727","APOAPSIS":"19142.836","PERIAPSIS":"19116.638","OBJECT_TYPE":"PAYLOAD","RCS_SIZE":"LARGE","COUNTRY_CODE":"CIS","LAUNCH_DATE":"2025-03-02","SITE":"PKMTR","DECAY_DATE":null,"FILE":"5256487","GP_ID":"330848613","TLE_LINE0":"0 COSMOS 2584(GLONASS)","TLE_LINE1":"1 63130U 25042A   26170.95584270 -.00000037  00000-0  00000-0 0  9993","TLE_LINE2":"2 63130  65.0856  72.7078 0005135 219.8892 140.1108  2.13103910 10106"},{"CCSDS_OMM_VERS":"3.0","COMMENT":"GENERATED VIA SPACE-TRACK.ORG API","CREATION_DATE":"2026-06-23T03:40:42","ORIGINATOR":"18 SPCS","OBJECT_NAME":"COSMOS 2584(GLONASS)","OBJECT_ID":"2025-042A","CENTER_NAME":"EARTH","REF_FRAME":"TEME","TIME_SYSTEM":"UTC","MEAN_ELEMENT_THEORY":"SGP4","EPOCH":"2026-06-19T22:56:24.809280","MEAN_MOTION":"2.13103910","ECCENTRICITY":"0.00051351","INCLINATION":"65.0856","RA_OF_ASC_NODE":"72.7078","ARG_OF_PERICENTER":"219.8892","MEAN_ANOMALY":"140.1108","EPHEMERIS_TYPE":"0","CLASSIFICATION_TYPE":"U","NORAD_CAT_ID":"63130","ELEMENT_SET_NO":"999","REV_AT_EPOCH":"1010","BSTAR":"0.00000000000000","MEAN_MOTION_DOT":"-0.00000037","MEAN_MOTION_DDOT":"0.0000000000000","SEMIMAJOR_AXIS":"25507.872","PERIOD":"675.727","APOAPSIS":"19142.836","PERIAPSIS":"19116.638","OBJECT_TYPE":"PAYLOAD","RCS_SIZE":"LARGE","COUNTRY_CODE":"CIS","LAUNCH_DATE":"2025-03-02","SITE":"PKMTR","DECAY_DATE":null,"FILE":"5257616","GP_ID":"330973830","TLE_LINE0":"0 COSMOS 2584(GLONASS)","TLE_LINE1":"1 63130U 25042A   26170.95584270 -.00000037  00000-0  00000-0 0  9993","TLE_LINE2":"2 63130  65.0856  72.7078 0005135 219.8892 140.1108  2.13103910 10106"},{"CCSDS_OMM_VERS":"3.0","COMMENT":"GENERATED VIA SPACE-TRACK.ORG API","CREATION_DATE":"2026-06-24T02:28:56","ORIGINATOR":"18 SPCS","OBJECT_NAME":"COSMOS 2584(GLONASS)","OBJECT_ID":"2025-042A","CENTER_NAME":"EARTH","REF_FRAME":"TEME","TIME_SYSTEM":"UTC","MEAN_ELEMENT_THEORY":"SGP4","EPOCH":"2026-06-23T05:46:26.241600","MEAN_MOTION":"2.13103825","ECCENTRICITY":"0.00065986","INCLINATION":"65.0880","RA_OF_ASC_NODE":"72.5961","ARG_OF_PERICENTER":"228.8314","MEAN_ANOMALY":"131.1446","EPHEMERIS_TYPE":"0","CLASSIFICATION_TYPE":"U","NORAD_CAT_ID":"63130","ELEMENT_SET_NO":"999","REV_AT_EPOCH":"1017","BSTAR":"0.00000000000000","MEAN_MOTION_DOT":"-0.00000067","MEAN_MOTION_DDOT":"0.0000000000000","SEMIMAJOR_AXIS":"25507.879","PERIOD":"675.727","APOAPSIS":"19146.576","PERIAPSIS":"19112.912","OBJECT_TYPE":"PAYLOAD","RCS_SIZE":"LARGE","COUNTRY_CODE":"CIS","LAUNCH_DATE":"2025-03-02","SITE":"PKMTR","DECAY_DATE":null,"FILE":"5257684","GP_ID":"331043522","TLE_LINE0":"0 COSMOS 2584(GLONASS)","TLE_LINE1":"1 63130U 25042A   26174.24058150 -.00000067  00000-0  00000-0 0  9995","TLE_LINE2":"2 63130  65.0880  72.5961 0006599 228.8314 131.1446  2.13103825 10173"}]